{
    "links": {
        "self": "http://www.neowsapp.com/rest/v1/neo/54051127?api_key=iIulBulltgU6a56xZRHN4H3l9WmuAYTsLGpBGhQ2"
    },
    "id": "54051127",
    "neo_reference_id": "54051127",
    "name": "(2020 PJ5)",
    "designation": "2020 PJ5",
    "nasa_jpl_url": "http://ssd.jpl.nasa.gov/sbdb.cgi?sstr=54051127",
    "absolute_magnitude_h": 25.883,
    "estimated_diameter": {
        "kilometers": {
            "estimated_diameter_min": 0.0176992546,
            "estimated_diameter_max": 0.0395767364
        },
        "meters": {
            "estimated_diameter_min": 17.6992546029,
            "estimated_diameter_max": 39.5767364432
        },
        "miles": {
            "estimated_diameter_min": 0.0109978035,
            "estimated_diameter_max": 0.0245918363
        },
        "feet": {
            "estimated_diameter_min": 58.0684224714,
            "estimated_diameter_max": 129.8449399922
        }
    },
    "is_potentially_hazardous_asteroid": false,
    "close_approach_data": [
        {
            "close_approach_date": "2020-07-18",
            "close_approach_date_full": "2020-Jul-18 12:04",
            "epoch_date_close_approach": 1595073840000,
            "relative_velocity": {
                "kilometers_per_second": "5.9975150479",
                "kilometers_per_hour": "21591.0541724549",
                "miles_per_hour": "13415.8414106568"
            },
            "miss_distance": {
                "astronomical": "0.1011320248",
                "lunar": "39.3403576472",
                "kilometers": "15129135.498867176",
                "miles": "9400808.8776959888"
            },
            "orbiting_body": "Earth"
        }
    ],
    "orbital_data": {
        "orbit_id": "1",
        "orbit_determination_date": "2020-08-17 06:42:06",
        "first_observation_date": "2020-07-20",
        "last_observation_date": "2020-08-17",
        "data_arc_in_days": 28,
        "observations_used": 12,
        "orbit_uncertainty": "9",
        "minimum_orbit_intersection": ".100738",
        "jupiter_tisserand_invariant": "3.183",
        "epoch_osculation": "2459068.5",
        "eccentricity": ".5656408716630333",
        "semi_major_axis": "2.570986436477567",
        "inclination": ".9766557202630742",
        "ascending_node_longitude": "303.4920116894435",
        "orbital_period": "1505.733473201402",
        "perihelion_distance": "1.11673142751456",
        "perihelion_argument": "354.8334890833002",
        "aphelion_distance": "4.025241445440574",
        "perihelion_time": "2459050.671775292234",
        "mean_anomaly": "4.262481381349544",
        "mean_motion": ".2390861373590832",
        "equinox": "J2000",
        "orbit_class": {
            "orbit_class_type": "AMO",
            "orbit_class_description": "Near-Earth asteroid orbits similar to that of 1221 Amor",
            "orbit_class_range": "1.017 AU < q (perihelion) < 1.3 AU"
        }
    },
    "is_sentry_object": false
}